OBJECT_NAME,OBJECT_ID,EPOCH,MEAN_MOTION,ECCENTRICITY,INCLINATION,RA_OF_ASC_NODE,ARG_OF_PERICENTER,MEAN_ANOMALY,EPHEMERIS_TYPE,CLASSIFICATION_TYPE,NORAD_CAT_ID,ELEMENT_SET_NO,REV_AT_EPOCH,BSTAR,MEAN_MOTION_DOT,MEAN_MOTION_DDOT
BEIDOU-2 G1,2010-001A,2025-03-10T16:27:38.660832,1.00274443,.0005047,3.2142,60.3886,285.7722,209.7752,0,U,36287,999,5552,0,-.295E-5,0
SDO,2010-005A,2025-03-09T02:14:37.517856,1.00275098,.0000938,33.6749,93.4598,196.3582,169.0356,0,U,36395,999,5540,0,-.82E-6,0
INTELSAT 16 (IS-16),2010-006A,2025-03-10T19:30:46.494432,1.00268155,.0001976,0.0222,147.1034,210.5763,27.5435,0,U,36397,999,5500,0,-.261E-5,0
EWS-G2 (GOES 15),2010-008A,2025-03-10T18:39:32.162112,1.00270982,.0003908,0.0802,92.4191,188.9279,228.4957,0,U,36411,999,5499,0,.21E-6,0
ECHOSTAR 14,2010-010A,2025-03-10T14:09:56.330784,1.00270135,.0001877,0.0238,168.6743,183.6423,269.7799,0,U,36499,999,4190,0,-.17E-6,0
SES-1,2010-016A,2025-03-10T14:15:04.096224,1.00271661,.0002619,0.0502,296.8833,48.6741,295.6934,0,U,36516,999,5438,0,-.132E-5,0
BEIDOU-2 G3,2010-024A,2025-03-10T20:15:18.792864,1.00272630,.0008434,3.4216,62.3310,322.0645,167.7795,0,U,36590,999,5413,0,-.15E-5,0
BADR-5,2010-025A,2025-03-10T20:52:38.793216,1.00269700,.000137,0.0385,127.8426,254.5920,125.4778,0,U,36592,999,4857,0,.127E-5,0
COMS 1,2010-032A,2025-03-10T20:29:08.140416,1.00272186,.0001019,3.6165,81.3665,267.5732,255.2482,0,U,36744,999,4644,0,-.36E-5,0
ECHOSTAR 15,2010-034A,2025-03-10T19:34:54.206688,1.00273440,.0002605,0.0405,276.5657,41.2105,83.0027,0,U,36792,999,5367,0,-.299E-5,0
BEIDOU-2 IGSO-1,2010-036A,2025-03-09T16:35:38.867712,1.00253824,.0045438,54.2675,167.1633,210.4664,143.9236,0,U,36828,999,5343,0,-.166E-5,0
NILESAT 201,2010-037A,2025-03-10T08:08:38.687424,1.00272087,.0002633,0.0176,161.6128,181.4011,300.3428,0,U,36830,999,5371,0,-.76E-6,0
AEHF-1 (USA 214),2010-039A,2025-03-10T14:36:41.611680,1.00267563,.0004147,7.0566,73.9755,281.5249,62.1692,0,U,36868,999,5378,0,.135E-5,0
BSAT-3B,2010-056B,2025-03-10T19:57:21.638880,1.00271055,.0001751,0.0745,252.5592,34.8399,290.5005,0,U,37207,999,4745,0,-.368E-5,0
BEIDOU-2 G4,2010-057A,2025-03-10T18:55:26.082048,1.00271988,.0007487,2.4970,70.4410,206.3413,335.7727,0,U,37210,999,5264,0,-.128E-5,0
HYLAS 1,2010-065A,2025-03-10T18:19:09.208128,1.00272515,.0000749,4.4621,78.6862,332.4373,65.5696,0,U,37237,999,224,0,.139E-5,0
INTELSAT 17 (IS-17),2010-065B,2025-03-10T18:37:50.575584,1.00270601,.0002848,0.0123,192.4738,184.1795,137.4793,0,U,37238,999,4860,0,-.19E-6,0
BEIDOU-2 IGSO-2,2010-068A,2025-03-10T11:49:24.938400,1.00267192,.0039,48.3863,277.5543,211.3720,324.8856,0,U,37256,999,5214,0,-.166E-5,0
EUTELSAT KA-SAT 9A,2010-069A,2025-03-10T11:08:38.645088,1.00272421,.0002483,0.0767,292.4153,158.4307,253.7237,0,U,37258,999,5217,0,.44E-6,0
HISPASAT 30W-5,2010-070A,2025-03-10T19:43:54.672384,1.00272803,.0002696,0.0299,121.4326,246.4465,66.8100,0,U,37264,999,4853,0,-.233E-5,0
KOREASAT 6,2010-070B,2025-03-10T21:28:38.707680,1.00272500,.0002274,0.0431,16.1351,329.9763,304.6895,0,U,37265,999,5212,0,-.129E-5,0
BEIDOU-2 IGSO-3,2011-013A,2025-03-10T20:23:30.349248,1.00291008,.003051,61.7530,44.5433,184.2686,352.8802,0,U,37384,999,5101,0,-.162E-5,0
