BEIDOU-2 IGSO-1 (C06)   
1 36828U 10036A   25068.69142208 -.00000166  00000+0  00000+0 0  9992
2 36828  54.2675 167.1633 0045438 210.4664 143.9236  1.00253824 53430
BEIDOU-2 G4 (C04)       
1 37210U 10057A   25069.78849632 -.00000128  00000+0  00000+0 0  9995
2 37210   2.4970  70.4410 0007487 206.3413 335.7727  1.00271988 52645
BEIDOU-2 IGSO-2 (C07)   
1 37256U 10068A   25069.49264975 -.00000166  00000+0  00000+0 0  9998
2 37256  48.3863 277.5543 0039000 211.3720 324.8856  1.00267192 52144
BEIDOU-2 IGSO-3 (C08)   
1 37384U 11013A   25069.84965682 -.00000162  00000+0  00000+0 0  9999
2 37384  61.7530  44.5433 0030510 184.2686 352.8802  1.00291008 51012
BEIDOU-2 G1             
1 36287U 10001A   25069.68586413 -.00000295  00000+0  00000+0 0  9996
2 36287   3.2142  60.3886 0005047 285.7722 209.7752  1.00274443 55524
SDO                     
1 36395U 10005A   25068.09348979 -.00000082  00000+0  00000+0 0  9991
2 36395  33.6749  93.4598 0000938 196.3582 169.0356  1.00275098 55408
INTELSAT 16 (IS-16)     
1 36397U 10006A   25069.81303813 -.00000261  00000+0  00000+0 0  9992
2 36397   0.0222 147.1034 0001976 210.5763  27.5435  1.00268155 55007
EWS-G2 (GOES 15)        
1 36411U 10008A   25069.77745558  .00000021  00000+0  00000+0 0  9995
2 36411   0.0802  92.4191 0003908 188.9279 228.4957  1.00270982 54990
ECHOSTAR 14             
1 36499U 10010A   25069.59023531 -.00000017  00000+0  00000+0 0  9990
2 36499   0.0238 168.6743 0001877 183.6423 269.7799  1.00270135 41903
SES-1                   
1 36516U 10016A   25069.59379741 -.00000132  00000+0  00000+0 0  9991
2 36516   0.0502 296.8833 0002619  48.6741 295.6934  1.00271661 54389
BEIDOU-2 G3             
1 36590U 10024A   25069.84396751 -.00000150  00000+0  00000+0 0  9990
2 36590   3.4216  62.3310 0008434 322.0645 167.7795  1.00272630 54133
BADR-5                  
1 36592U 10025A   25069.86989344  .00000127  00000+0  00000+0 0  9994
2 36592   0.0385 127.8426 0001370 254.5920 125.4778  1.00269700 48574
COMS 1                  
1 36744U 10032A   25069.85356644 -.00000360  00000+0  00000+0 0  9991
2 36744   3.6165  81.3665 0001019 267.5732 255.2482  1.00272186 46442
ECHOSTAR 15             
1 36792U 10034A   25069.81590517 -.00000299  00000+0  00000+0 0  9992
2 36792   0.0405 276.5657 0002605  41.2105  83.0027  1.00273440 53674
NILESAT 201             
1 36830U 10037A   25069.33933666 -.00000076  00000+0  00000+0 0  9994
2 36830   0.0176 161.6128 0002633 181.4011 300.3428  1.00272087 53714
AEHF-1 (USA 214)        
1 36868U 10039A   25069.60881495  .00000135  00000+0  00000+0 0  9994
2 36868   7.0566  73.9755 0004147 281.5249  62.1692  1.00267563 53789
BSAT-3B                 
1 37207U 10056B   25069.83150045 -.00000368  00000+0  00000+0 0  9995
2 37207   0.0745 252.5592 0001751  34.8399 290.5005  1.00271055 47459
HYLAS 1                 
1 37237U 10065A   25069.76330102  .00000139  00000+0  00000+0 0  9999
2 37237   4.4621  78.6862 0000749 332.4373  65.5696  1.00272515  2241
INTELSAT 17 (IS-17)     
1 37238U 10065B   25069.77627981 -.00000019  00000+0  00000+0 0  9993
2 37238   0.0123 192.4738 0002848 184.1795 137.4793  1.00270601 48601
EUTELSAT KA-SAT 9A      
1 37258U 10069A   25069.46433617  .00000044  00000+0  00000+0 0  9993
2 37258   0.0767 292.4153 0002483 158.4307 253.7237  1.00272421 52171
HISPASAT 30W-5          
1 37264U 10070A   25069.82216056 -.00000233  00000+0  00000+0 0  9999
2 37264   0.0299 121.4326 0002696 246.4465  66.8100  1.00272803 48531
KOREASAT 6              
1 37265U 10070B   25069.89489245 -.00000129  00000+0  00000+0 0  9993
2 37265   0.0431  16.1351 0002274 329.9763 304.6895  1.00272500 52126
